     3.00           N                   E                   RINEX VERSION / TYPE
BRD_USR             ESA                 20190110 001627  UTCPGM / RUN BY / DATE
 GAL   4.3750E+01  5.0781E-02 -2.1057E-03  0.0000E+00       IONOSPHERIC CORR
GAUT  0.0000000000E+00 0.000000000E+00 259200 2035 GSTB   0 TIME SYSTEM CORR
GPGA -1.7753336579E-09-4.440892099E-15 345600 2035 GSTB   0 TIME SYSTEM CORR
                                                            END OF HEADER
E31 2019 01 09 22 40 00 9.367075399496E-04-9.720224625198E-12 0.000000000000E+00
     5.600000000000E+01 3.600000000000E+01 2.622252084468E-09 2.384227469170E+00
     1.698732376099E-06 2.452858025208E-04 1.089088618755E-05 5.440628231049E+03
     3.408000000000E+05 6.332993507385E-08-2.950619469807E+00-5.401670932770E-08
     9.897790806144E-01 1.187500000000E+02-1.509757265142E+00-5.195573559350E-09
    -5.307363930154E-10 2.580000000000E+02 2.035000000000E+03 0.000000000000E+00
     3.120000000000E+00 0.000000000000E+00-2.328306436539E-10 0.000000000000E+00
     3.415000000000E+05 0.000000000000E+00 0.000000000000E+00 0.000000000000E+00
E33 2019 01 09 22 40 00 8.478906238452E-04 9.947598300641E-14 0.000000000000E+00
     5.600000000000E+01-4.253125000000E+01 3.045126841756E-09 1.016811729376E+00
    -2.091750502586E-06 3.664238611236E-04 2.235174179077E-08 5.440594375610E+03
     3.408000000000E+05 7.450580596924E-09-8.679056502683E-01-5.029141902924E-08
     9.851368450981E-01 3.518437500000E+02-1.469099206587E+00-5.897745664780E-09
    -1.296482575132E-10 2.580000000000E+02 2.035000000000E+03 0.000000000000E+00
     3.120000000000E+00 5.600000000000E+01-8.149072527885E-09 0.000000000000E+00
     3.415000000000E+05 0.000000000000E+00 0.000000000000E+00 0.000000000000E+00
E36 2019 01 09 22 40 00 7.615343201905E-04-4.504840944719E-12 0.000000000000E+00
     5.600000000000E+01-1.950000000000E+01 3.090843031733E-09-1.232224178283E+00
    -9.089708328247E-07 3.332336200401E-04 1.695007085800E-07 5.440594860077E+03
     3.408000000000E+05-1.117587089539E-08-8.678795561985E-01-3.725290298462E-09
     9.851445458989E-01 3.482500000000E+02-1.574560368199E+00-5.927746914452E-09
    -5.000208278745E-11 2.580000000000E+02 2.035000000000E+03 0.000000000000E+00
     3.120000000000E+00 5.600000000000E+01 1.164153218269E-09 0.000000000000E+00
     3.415000000000E+05 0.000000000000E+00 0.000000000000E+00 0.000000000000E+00
E02 2019 01 09 22 40 00 4.266516771168E-05 1.492139745096E-12 0.000000000000E+00
     5.600000000000E+01 1.381250000000E+01 2.704755521067E-09-1.272262376503E+00
     6.891787052155E-07 2.675221767277E-04 1.051463186741E-05 5.440618789673E+03
     3.408000000000E+05 7.450580596924E-09-2.948012245503E+00-3.539025783539E-08
     9.902487972772E-01 1.302812500000E+02-2.287997380618E-01-5.243075537999E-09
    -4.750197864808E-10 5.210000000000E+02 2.035000000000E+03 0.000000000000E+00
     3.120000000000E+00 0.000000000000E+00-6.053596735001E-09-7.450580596924E-09
     3.415150000000E+05 0.000000000000E+00 0.000000000000E+00 0.000000000000E+00
E14 2019 01 09 22 40 00 6.462264340371E-03-5.613287612505E-12 0.000000000000E+00
     5.600000000000E+01 2.375625000000E+02 4.080884270924E-09 2.013440963395E+00
     8.523464202881E-06 1.663064809982E-01-1.138076186180E-06 5.289395223618E+03
     3.408000000000E+05 2.363696694374E-06-1.463938103287E+00-1.430511474609E-06
     8.825900606072E-01 2.896250000000E+02 1.455814978549E+00-6.046680439940E-09
    -5.535944880039E-11 2.580000000000E+02 2.035000000000E+03 0.000000000000E+00
     3.120000000000E+00 5.600000000000E+01 3.306195139885E-08 0.000000000000E+00
     3.415500000000E+05 0.000000000000E+00 0.000000000000E+00 0.000000000000E+00
E31 2019 01 09 22 40 00 9.367075399496E-04-9.720224625198E-12 0.000000000000E+00
     5.600000000000E+01 3.600000000000E+01 2.622252084468E-09 2.384227469170E+00
     1.698732376099E-06 2.452858025208E-04 1.089088618755E-05 5.440628231049E+03
     3.408000000000E+05 6.332993507385E-08-2.950619469807E+00-5.401670932770E-08
     9.897790806144E-01 1.187500000000E+02-1.509757265142E+00-5.195573559350E-09
    -5.307363930154E-10 2.580000000000E+02 2.035000000000E+03 0.000000000000E+00
     3.120000000000E+00 0.000000000000E+00-2.328306436539E-10 0.000000000000E+00
     3.415500000000E+05 0.000000000000E+00 0.000000000000E+00 0.000000000000E+00
E14 2019 01 09 22 40 00 6.462268996984E-03-5.613287612505E-12 0.000000000000E+00
     5.600000000000E+01 2.375625000000E+02 4.080884270924E-09 2.013440963395E+00
     8.523464202881E-06 1.663064809982E-01-1.138076186180E-06 5.289395223618E+03
     3.408000000000E+05 2.363696694374E-06-1.463938103287E+00-1.430511474609E-06
     8.825900606072E-01 2.896250000000E+02 1.455814978549E+00-6.046680439940E-09
    -5.535944880039E-11 5.210000000000E+02 2.035000000000E+03 0.000000000000E+00
     3.120000000000E+00 4.550000000000E+02 3.306195139885E-08 3.702007234097E-08
     3.415750000000E+05 0.000000000000E+00 0.000000000000E+00 0.000000000000E+00
E31 2019 01 09 22 40 00 9.367079474032E-04-9.734435479913E-12 0.000000000000E+00
     5.600000000000E+01 3.600000000000E+01 2.622252084468E-09 2.384227469170E+00
     1.698732376099E-06 2.452858025208E-04 1.089088618755E-05 5.440628231049E+03
     3.408000000000E+05 6.332993507385E-08-2.950619469807E+00-5.401670932770E-08
     9.897790806144E-01 1.187500000000E+02-1.509757265142E+00-5.195573559350E-09
    -5.307363930154E-10 5.210000000000E+02 2.035000000000E+03 0.000000000000E+00
     3.120000000000E+00 0.000000000000E+00-2.328306436539E-10-2.328306436539E-10
     3.417250000000E+05 0.000000000000E+00 0.000000000000E+00 0.000000000000E+00
E31 2019 01 09 22 40 00 9.367075399496E-04-9.720224625198E-12 0.000000000000E+00
     5.600000000000E+01 3.600000000000E+01 2.622252084468E-09 2.384227469170E+00
     1.698732376099E-06 2.452858025208E-04 1.089088618755E-05 5.440628231049E+03
     3.408000000000E+05 6.332993507385E-08-2.950619469807E+00-5.401670932770E-08
     9.897790806144E-01 1.187500000000E+02-1.509757265142E+00-5.195573559350E-09
    -5.307363930154E-10 2.580000000000E+02 2.035000000000E+03 0.000000000000E+00
     3.120000000000E+00 0.000000000000E+00-2.328306436539E-10 0.000000000000E+00
     3.417500000000E+05 0.000000000000E+00 0.000000000000E+00 0.000000000000E+00
E03 2019 01 09 22 00 00-1.203849678859E-04-4.249045559845E-12 0.000000000000E+00
     5.200000000000E+01 3.500000000000E+00 3.239063491424E-09-3.081828181257E-01
     2.328306436539E-07 2.607420319691E-04 9.590759873390E-06 5.440618343353E+03
     3.384000000000E+05 3.352761268616E-08 1.242681551200E+00-1.490116119385E-08
     9.523715909223E-01 1.315937500000E+02 6.004491855644E-01-5.495586056075E-09
     5.525230148013E-10 5.210000000000E+02 2.035000000000E+03 0.000000000000E+00
     3.120000000000E+00 0.000000000000E+00-1.862645149231E-09-2.328306436539E-09
     3.417550000000E+05 0.000000000000E+00 0.000000000000E+00 0.000000000000E+00
E03 2019 01 09 22 00 00-1.203853171319E-04-4.249045559845E-12 0.000000000000E+00
     5.200000000000E+01 3.500000000000E+00 3.239063491424E-09-3.081828181257E-01
     2.328306436539E-07 2.607420319691E-04 9.590759873390E-06 5.440618343353E+03
     3.384000000000E+05 3.352761268616E-08 1.242681551200E+00-1.490116119385E-08
     9.523715909223E-01 1.315937500000E+02 6.004491855644E-01-5.495586056075E-09
     5.525230148013E-10 2.580000000000E+02 2.035000000000E+03 0.000000000000E+00
     3.120000000000E+00 0.000000000000E+00-1.862645149231E-09 0.000000000000E+00
     3.418000000000E+05 0.000000000000E+00 0.000000000000E+00 0.000000000000E+00
E31 2019 01 09 22 40 00 9.367079474032E-04-9.734435479913E-12 0.000000000000E+00
     5.600000000000E+01 3.600000000000E+01 2.622252084468E-09 2.384227469170E+00
     1.698732376099E-06 2.452858025208E-04 1.089088618755E-05 5.440628231049E+03
     3.408000000000E+05 6.332993507385E-08-2.950619469807E+00-5.401670932770E-08
     9.897790806144E-01 1.187500000000E+02-1.509757265142E+00-5.195573559350E-09
    -5.307363930154E-10 5.210000000000E+02 2.035000000000E+03 0.000000000000E+00
     3.120000000000E+00 0.000000000000E+00-2.328306436539E-10-2.328306436539E-10
     3.418750000000E+05 0.000000000000E+00 0.000000000000E+00 0.000000000000E+00
E07 2019 01 09 22 40 00-1.096045016311E-04-7.048583938740E-12 0.000000000000E+00
     5.600000000000E+01 2.000000000000E+01 3.233706125411E-09-9.493916633678E-01
     9.797513484955E-07 1.392879057676E-04 9.398907423019E-06 5.440620319366E+03
     3.408000000000E+05-2.980232238770E-08 1.242669654751E+00-2.048909664154E-08
     9.524164103435E-01 1.307187500000E+02-3.121599759731E-02-5.563803183307E-09
     5.600233272195E-10 5.210000000000E+02 2.035000000000E+03 0.000000000000E+00
     3.120000000000E+00 0.000000000000E+00 4.656612873077E-10 2.328306436539E-10
     3.419350000000E+05 0.000000000000E+00 0.000000000000E+00 0.000000000000E+00
E07 2019 01 09 22 40 00-1.096049672924E-04-7.062794793455E-12 0.000000000000E+00
     5.600000000000E+01 2.000000000000E+01 3.233706125411E-09-9.493916633678E-01
     9.797513484955E-07 1.392879057676E-04 9.398907423019E-06 5.440620319366E+03
     3.408000000000E+05-2.980232238770E-08 1.242669654751E+00-2.048909664154E-08
     9.524164103435E-01 1.307187500000E+02-3.121599759731E-02-5.563803183307E-09
     5.600233272195E-10 2.580000000000E+02 2.035000000000E+03 0.000000000000E+00
     3.120000000000E+00 0.000000000000E+00 4.656612873077E-10 0.000000000000E+00
     3.419500000000E+05 0.000000000000E+00 0.000000000000E+00 0.000000000000E+00
